{"id":"699","name":"Saturn ","centerId":"10","centerName":"Sun ","epoch":"2000-Jan-01 12:00:00.0000","physicalData":{"id":"699","name":"Saturn ","table":{"meanRadius":58232000,"mass":5.6834e+26,"siderealRotationRate":0.000163785,"gravParameter":37931206234,"obliquity":26.73}},"elementTable":{"eccentricity":0.05563834267345058,"periapsis":1353682190782.635,"inclination":2.484252387625145,"longitudeOfAscendingNode":113.6996600266686,"argumentOfPeriapsis":335.8655937185864,"timeOfPeriapsis":2452735.7706333147,"meanMotion":3.846563888180532e-7,"meanAnomaly":320.4255572592746,"trueAnomaly":316.1382469801452,"semiMajorAxis":1433436205589.77,"apoapsis":1513190220396.905,"siderealOrbitPeriod":935900222.8097245},"vectorTable":{"position":[958385358915.7217,982856282959.328,-55212979698.75515],"velocity":[-7431.21295876464,6736.755752908774,177.7382933392078],"range":1373884071624.625,"rangeRate":-371.5862578813987}}
